{"fetched_at":"2026-03-30T13:17:50Z","count":15418,"tles":[{"name":"STARLINK-36483","line1":"1 67330U 26002AB  26087.70295495  .00012229  00000+0  45298-3 0  9999","line2":"2 67330  42.9986 218.1518 0001282 262.9645  97.1061 15.27593612 14147","category":"Starlink"}]}